ONEWEB-0461             
1 51649U 22012AD  24211.55052494 -.00000021  00000+0 -86638-4 0  9995
2 51649  87.9189 142.7869 0002159  79.0163 281.1212 13.17649681124627
ONEWEB-0463             
1 51650U 22012AE  24211.53275486 -.00000011  00000+0 -61749-4 0  9998
2 51650  87.9194 142.8392 0002176  79.1354 281.0022 13.17649320123110
ONEWEB-0464             
1 51651U 22012AF  24211.35729277  .00000478  00000+0  13337-2 0  9994
2 51651  87.8967 173.0801 0001813  74.0821 286.0506 13.10371429119245
ONEWEB-0468             
1 51652U 22012AG  24211.36392989  .00000186  00000+0  49539-3 0  9992
2 51652  87.8956 173.0712 0001985  81.8591 278.2761 13.10377005119225
ONEWEB-0473             
1 51653U 22012AH  24211.42535533  .00000686  00000+0  19301-2 0  9992
2 51653  87.8969 173.0627 0002135  79.1807 280.9561 13.10373027119232
ONEWEB-0474             
1 51654U 22012AJ  24211.41705294  .00000567  00000+0  15880-2 0  9991
2 51654  87.8962 173.0573 0002066  74.7730 285.3625 13.10374953119223
ONEWEB-0475             
1 51655U 22012AK  24211.54406780  .00000009  00000+0 -93546-5 0  9994
2 51655  87.9194 142.8162 0002161  67.2575 292.8784 13.17649199123138
ONEWEB-0490             
1 54113U 22138A   24211.40044600 -.00000030  00000+0 -10742-3 0  9999
2 54113  87.9116  81.8164 0001719  76.3636 283.7688 13.19725768 86112
